{
  "type": "FeatureCollection",
  "features": [
    {
      "type": "Feature",
      "properties": {
        "norad_id": 63130,
        "name": "COSMOS 2584 (704K)",
        "group": "gnss",
        "lat": 11.389039793520034,
        "lon": 84.58614053068389,
        "alt_km": 19146.68506461676,
        "timestamp": "2025-12-11T10:53:16.128763+00:00",
        "meta_object_name": "COSMOS 2584 (704K)",
        "meta_object_id": "2025-042A",
        "meta_epoch": "2025-12-08T03:39:29.178720",
        "meta_mean_motion": 2.13102925,
        "meta_eccentricity": 0.0007602,
        "meta_inclination": 64.9737,
        "meta_ra_of_asc_node": 79.3022,
        "meta_arg_of_pericenter": 215.9611,
        "meta_mean_anomaly": 144.0025,
        "meta_ephemeris_type": 0,
        "meta_classification_type": "U",
        "meta_norad_cat_id": 63130,
        "meta_element_set_no": 999,
        "meta_rev_at_epoch": 597,
        "meta_bstar": 0,
        "meta_mean_motion_dot": -1.2e-07,
        "meta_mean_motion_ddot": 0,
        "tle_line1": "1 63130U 25042A   25342.15242105 -.00000012  00000+0  00000+0 0  9994",
        "tle_line2": "2 63130  64.9737  79.3022 0007602 215.9611 144.0025  2.13102925  5976"
      },
      "geometry": {
        "type": "Point",
        "coordinates": [
          84.58614053068389,
          11.389039793520034
        ]
      }
    },
    {
      "type": "Feature",
      "properties": {
        "norad_id": 64202,
        "name": "GPS BIII-8  (PRN 21)",
        "group": "gnss",
        "lat": -46.08768123631202,
        "lon": -94.87768032907049,
        "alt_km": 20182.17963167506,
        "timestamp": "2025-12-11T10:53:16.128776+00:00",
        "meta_object_name": "GPS BIII-8  (PRN 21)",
        "meta_object_id": "2025-116A",
        "meta_epoch": "2025-12-11T02:51:45.968256",
        "meta_mean_motion": 2.00558368,
        "meta_eccentricity": 0.0005369,
        "meta_inclination": 55.1046,
        "meta_ra_of_asc_node": 38.706,
        "meta_arg_of_pericenter": 307.6723,
        "meta_mean_anomaly": 52.3979,
        "meta_ephemeris_type": 0,
        "meta_classification_type": "U",
        "meta_norad_cat_id": 64202,
        "meta_element_set_no": 999,
        "meta_rev_at_epoch": 409,
        "meta_bstar": 0,
        "meta_mean_motion_dot": -9.4e-07,
        "meta_mean_motion_ddot": 0,
        "tle_line1": "1 64202U 25116A   25345.11928204 -.00000094  00000+0  00000+0 0  9997",
        "tle_line2": "2 64202  55.1046  38.7060 0005369 307.6723  52.3979  2.00558368  4097"
      },
      "geometry": {
        "type": "Point",
        "coordinates": [
          -94.87768032907049,
          -46.08768123631202
        ]
      }
    },
    {
      "type": "Feature",
      "properties": {
        "norad_id": 65590,
        "name": "COSMOS 2596 (708K)",
        "group": "gnss",
        "lat": 42.956466299867614,
        "lon": 115.44165658704974,
        "alt_km": 19160.71390572889,
        "timestamp": "2025-12-11T10:53:16.128798+00:00",
        "meta_object_name": "COSMOS 2596 (708K)",
        "meta_object_id": "2025-206B",
        "meta_epoch": "2025-12-10T13:06:28.122048",
        "meta_mean_motion": 2.13100337,
        "meta_eccentricity": 0.00140136,
        "meta_inclination": 64.7453,
        "meta_ra_of_asc_node": 321.5499,
        "meta_arg_of_pericenter": 305.8933,
        "meta_mean_anomaly": 208.9804,
        "meta_ephemeris_type": 0,
        "meta_classification_type": "U",
        "meta_norad_cat_id": 65590,
        "meta_element_set_no": 999,
        "meta_rev_at_epoch": 189,
        "meta_bstar": 0,
        "meta_mean_motion_dot": -5.2e-07,
        "meta_mean_motion_ddot": 0,
        "tle_line1": "1 65590U 25206B   25344.54615882 -.00000052  00000+0  00000+0 0  9993",
        "tle_line2": "2 65590  64.7453 321.5499 0014013 305.8933 208.9804  2.13100337  1898"
      },
      "geometry": {
        "type": "Point",
        "coordinates": [
          115.44165658704974,
          42.956466299867614
        ]
      }
    }
  ]
}